GPS BIIR-2  (PRN 13)    
1 24876U 97035A   23337.83899747  .00000073  00000+0  00000+0 0  9992
2 24876  55.6136 134.8078 0075374  53.6217 307.0650  2.00564885193176
GPS BIIR-4  (PRN 20)    
1 26360U 00025A   23338.70883679 -.00000073  00000+0  00000+0 0  9990
2 26360  54.5078  56.8637 0041650 205.9621 152.9041  2.00564465172705
GPS BIIR-5  (PRN 22)    
1 26407U 00040A   23338.60163625 -.00000033  00000+0  00000+0 0  9996
2 26407  55.1560 251.9703 0151317 293.1894 189.7790  2.00557392171388
GPS BIIR-8  (PRN 16)    
1 27663U 03005A   23338.75536654 -.00000033  00000+0  00000+0 0  9997
2 27663  55.1968 251.7751 0135862  45.4984 325.3027  2.00560837152750
GPS BIIR-9  (PRN 21)    
1 27704U 03010A   23338.93286918 -.00000086  00000+0  00000+0 0  9992
2 27704  55.1154   1.6721 0251834 320.9978  35.9694  2.00555485151547
GPS BIIR-11 (PRN 19)    
1 28190U 04009A   23339.16228014 -.00000059  00000+0  00000+0 0  9990
2 28190  55.6191 312.8156 0092112 141.8536 319.6628  2.00564544144428
GPS BIIR-13 (PRN 02)    
1 28474U 04045A   23338.95315619 -.00000085  00000+0  00000+0 0  9998
2 28474  55.4430   2.0238 0164498 285.5903  77.0345  2.00536763139873
GPS BIIRM-1 (PRN 17)    
1 28874U 05038A   23338.61498345 -.00000057  00000+0  00000+0 0  9995
2 28874  55.6691 310.2921 0140191 281.5134 168.4858  2.00569324133278
GPS BIIRM-2 (PRN 31)    
1 29486U 06042A   23338.64461203  .00000063  00000+0  00000+0 0  9993
2 29486  54.6794 188.0361 0104838  35.2523 336.6697  2.00565502125831
GPS BIIRM-3 (PRN 12)    
1 29601U 06052A   23338.05661374 -.00000031  00000+0  00000+0 0  9995
2 29601  55.2209 250.7682 0085557  79.7384 281.2689  2.00554618124836
GPS BIIRM-4 (PRN 15)    
1 32260U 07047A   23338.36740344  .00000050  00000+0  00000+0 0  9994
2 32260  53.5099 118.3671 0152527  72.9314 288.7159  2.00574417118247
GPS BIIRM-5 (PRN 29)    
1 32384U 07062A   23338.68960477 -.00000057  00000+0  00000+0 0  9992
2 32384  55.8033 311.1239 0023896 151.5217 211.2898  2.00563441116954
GPS BIIRM-6 (PRN 07)    
1 32711U 08012A   23338.28190020  .00000059  00000+0  00000+0 0  9998
2 32711  54.4484 186.8604 0178466 236.3868 121.9650  2.00560728115186
GPS BIIRM-8 (PRN 05)    
1 35752U 09043A   23339.39620708 -.00000062  00000+0  00000+0 0  9990
2 35752  55.5105  64.0434 0056212  70.3148  29.4211  2.00552829104798
GPS BIIF-1  (PRN 25)    
1 36585U 10022A   23338.84453265 -.00000027  00000+0  00000+0 0  9996
2 36585  54.5227 245.8926 0113489  60.0961 121.1711  2.00566745 99038
GPS BIIF-3  (PRN 24)    
1 38833U 12053A   23338.45481184  .00000067  00000+0  00000+0 0  9991
2 38833  53.5113 181.4680 0147473  53.8419 307.5776  2.00568787 80870
GPS BIIF-4  (PRN 27)    
1 39166U 13023A   23338.81800612 -.00000057  00000+0  00000+0 0  9990
2 39166  55.2828 306.4440 0117828  41.6531 319.2363  2.00564229 77310
GPS BIIF-5  (PRN 30)    
1 39533U 14008A   23337.82313418  .00000052  00000+0  00000+0 0  9999
2 39533  53.5965 187.0645 0067289 215.2153 144.4062  2.00556934 71104
GPS BIIF-6  (PRN 06)    
1 39741U 14026A   23339.10353717 -.00000085  00000+0  00000+0 0  9996
2 39741  56.7053   7.4305 0032440 310.0224  49.7448  2.00550920 69976
GPS BIIF-7  (PRN 09)    
1 40105U 14045A   23337.69060530  .00000059  00000+0  00000+0 0  9993
2 40105  54.8502 125.4615 0027526 116.0299 244.2396  2.00552826 67496
GPS BIIF-8  (PRN 03)    
1 40294U 14068A   23338.55755808 -.00000055  00000+0  00000+0 0  9999
2 40294  56.2546  66.8874 0048567  62.5009 298.0118  2.00577880 66648
GPS BIIF-9  (PRN 26)    
1 40534U 15013A   23338.70293859 -.00000025  00000+0  00000+0 0  9994
2 40534  53.4207 242.5048 0085229  27.5477 332.9563  2.00549043 63267
GPS BIIF-10 (PRN 08)    
1 40730U 15033A   23338.86478702 -.00000058  00000+0  00000+0 0  9999
2 40730  54.7694 305.0119 0089745  14.8370 345.4217  2.00550198 61458
GPS BIIF-11 (PRN 10)    
1 41019U 15062A   23338.41491583 -.00000056  00000+0  00000+0 0  9993
2 41019  56.2374  66.7446 0093165 222.6577 136.6367  2.00562332 59269
GPS BIIF-12 (PRN 32)    
1 41328U 16007A   23339.49825922  .00000072  00000+0  00000+0 0  9990
2 41328  55.0524 126.1882 0073916 233.9986 125.3052  2.00571408 57338
GPS BIII-1  (PRN 04)    
1 43873U 18109A   23338.88662045  .00000074  00000+0  00000+0 0  9991
2 43873  55.2263 128.7469 0027579 190.1648 342.3807  2.00571888 36517
GPS BIII-2  (PRN 18)    
1 44506U 19056A   23338.52898292 -.00000090  00000+0  00000+0 0  9992
2 44506  55.8322   7.8290 0038687 189.8184 342.3437  2.00567813 31500
GPS BIII-3  (PRN 23)    
1 45854U 20041A   23338.37804420 -.00000059  00000+0  00000+0 0  9993
2 45854  55.9592  65.1339 0039271 190.2541 175.0852  2.00561406 25474
GPS BIII-4  (PRN 14)    
1 46826U 20078A   23338.61636887 -.00000030  00000+0  00000+0 0  9999
2 46826  54.2659 248.3574 0037726 194.1639 319.4637  2.00562726 22940
GPS BIII-5  (PRN 11)    
1 48859U 21054A   23338.17920887 -.00000093  00000+0  00000+0 0  9998
2 48859  55.3518   9.5857 0014299 221.8464 160.5658  2.00568919 18188
GPS BIII-6  (PRN 28)    
1 55268U 23009A   23334.35503826  .00000044  00000+0  00000+0 0  9993
2 55268  55.0867 185.0026 0005536  89.9370  87.1990  2.00549534  6592
